{
    "links": {
        "self": "http://www.neowsapp.com/rest/v1/neo/3824103?api_key=iIulBulltgU6a56xZRHN4H3l9WmuAYTsLGpBGhQ2"
    },
    "id": "3824103",
    "neo_reference_id": "3824103",
    "name": "(2018 JY2)",
    "designation": "2018 JY2",
    "nasa_jpl_url": "http://ssd.jpl.nasa.gov/sbdb.cgi?sstr=3824103",
    "absolute_magnitude_h": 24.8,
    "estimated_diameter": {
        "kilometers": {
            "estimated_diameter_min": 0.0291443905,
            "estimated_diameter_max": 0.0651688382
        },
        "meters": {
            "estimated_diameter_min": 29.1443904535,
            "estimated_diameter_max": 65.1688382168
        },
        "miles": {
            "estimated_diameter_min": 0.018109479,
            "estimated_diameter_max": 0.0404940262
        },
        "feet": {
            "estimated_diameter_min": 95.6180819754,
            "estimated_diameter_max": 213.8085311752
        }
    },
    "is_potentially_hazardous_asteroid": false,
    "close_approach_data": [
        {
            "close_approach_date": "2018-05-05",
            "close_approach_date_full": "2018-May-05 17:31",
            "epoch_date_close_approach": 1525541460000,
            "relative_velocity": {
                "kilometers_per_second": "9.0087488367",
                "kilometers_per_hour": "32431.4958120754",
                "miles_per_hour": "20151.6702727865"
            },
            "miss_distance": {
                "astronomical": "0.0696305795",
                "lunar": "27.0862954255",
                "kilometers": "10416586.380065665",
                "miles": "6472566.639669577"
            },
            "orbiting_body": "Earth"
        },
        {
            "close_approach_date": "2198-01-11",
            "close_approach_date_full": "2198-Jan-11 02:38",
            "epoch_date_close_approach": 7195919880000,
            "relative_velocity": {
                "kilometers_per_second": "3.8427075283",
                "kilometers_per_hour": "13833.7471019114",
                "miles_per_hour": "8595.7524700738"
            },
            "miss_distance": {
                "astronomical": "0.3393360987",
                "lunar": "132.0017423943",
                "kilometers": "50763957.579629769",
                "miles": "31543260.5595540522"
            },
            "orbiting_body": "Earth"
        },
        {
            "close_approach_date": "2198-05-10",
            "close_approach_date_full": "2198-May-10 03:35",
            "epoch_date_close_approach": 7206204900000,
            "relative_velocity": {
                "kilometers_per_second": "9.7183519014",
                "kilometers_per_hour": "34986.0668450982",
                "miles_per_hour": "21738.9813682778"
            },
            "miss_distance": {
                "astronomical": "0.0932318126",
                "lunar": "36.2671751014",
                "kilometers": "13947280.581199162",
                "miles": "8666438.2850739556"
            },
            "orbiting_body": "Earth"
        }
    ],
    "orbital_data": {
        "orbit_id": "4",
        "orbit_determination_date": "2018-05-24 06:24:27",
        "first_observation_date": "2018-05-12",
        "last_observation_date": "2018-05-23",
        "data_arc_in_days": 11,
        "observations_used": 44,
        "orbit_uncertainty": "8",
        "minimum_orbit_intersection": ".0395086",
        "jupiter_tisserand_invariant": "4.615",
        "epoch_osculation": "2458252.5",
        "eccentricity": ".3244234425522742",
        "semi_major_axis": "1.431936559589168",
        "inclination": "8.502781611504208",
        "ascending_node_longitude": "50.51206752846257",
        "orbital_period": "625.8699396845476",
        "perihelion_distance": ".9673827714107907",
        "perihelion_argument": "126.3423854280503",
        "aphelion_distance": "1.896490347767546",
        "perihelion_time": "2458204.712998842285",
        "mean_anomaly": "27.48705334122335",
        "mean_motion": ".5751993779753154",
        "equinox": "J2000",
        "orbit_class": {
            "orbit_class_type": "APO",
            "orbit_class_description": "Near-Earth asteroid orbits which cross the Earth’s orbit similar to that of 1862 Apollo",
            "orbit_class_range": "a (semi-major axis) > 1.0 AU; q (perihelion) < 1.017 AU"
        }
    },
    "is_sentry_object": false
}